#dP2022  2 20 18  0  0.00000000      96 __u+U ITR00 EXT  IAC
## 2198  64800.00000000   900.00000000 59630 0.7500000000000
+  116   C06C07C08C09C10C11C12C13C14C16C19C20C21C22C23C24C25
+        C26C27C28C29C30C32C33C34C35C36C37C38C39C40C41C42C43
+        C44C45C46E01E02E03E04E05E07E09E10E11E12E13E14E15E18
+        E21E24E25E26E27E30E31E33E34E36G01G02G03G04G05G06G07
+        G08G09G10G11G12G13G14G15G16G17G18G19G20G21G22G23G24
+        G25G26G27G28G29G30G31G32J01J02J03R01R02R03R04R05R07
+        R08R09R11R12R13R14R15R17R18R19R20R21R22R24  0  0  0
++         9 11  9  9  9  9  9 10  9 14  9  8  9  9  8  9  9
++         9  8  9  7  7  9  8  9  8  9  8 10 10 11  9  9  9
++         9  7  7  9  7  9 10 10 10 10  8  8  8  7  8  8  6
++         7  7  8  7  8  9  9  8  9  7  7  6  7  9  7  5  7
++         6  8  6  8  8  8  5  9  5  8  6  7  8  8  7  8  7
++         8  7  7  8  8  7  8  8  9 11  8  9  7  8 10  8  9
++         7  8  8  9  8  7 10  9  7  8  9  9 10  7  0  0  0
%c M  cc GPS ccc cccc cccc cccc cccc ccccc ccccc ccccc ccccc
%c cc cc ccc ccc cccc cccc cccc cccc ccccc ccccc ccccc ccccc
%f  0.0000000  0.000000000  0.00000000000  0.000000000000000
%f  0.0000000  0.000000000  0.00000000000  0.000000000000000
%i    0    0    0    0      0      0      0      0         0
%i    0    0    0    0      0      0      0      0         0
/* IAC                                ULTRA-RAPID PREDICTION
/* S/V CLOCKS ARE ALIGNED TO GNSS TIME                      
/* G:C1WC2W R:C1PC2P E:C1XC5X C:C2IC6I J:C1CC2S             
/* PCV:IGS14_2196 OL/AL:FES2004  NONE     YN ORB:CoN CLK:CoN
*  2022 02 21  3 45  0.00000000
PC06 -19042.676670  29857.420731  22720.843553     87.058919
PC07  -6749.806106  39528.581850  13233.051763    -79.287709
PC08  -3419.573554  21649.608454 -35980.242129    148.887407
PC09  -9130.811349  28626.202560  29718.914087   -541.326699
PC10  -1190.400175  41822.257809   7197.203261    139.696682
PC11 -24015.806345  14224.174239   -594.828313   -195.391213
PC12 -22978.080444   1460.943061  15811.631333    681.082245
PC13   4589.511552  25542.207213 -33035.392568   -110.545127
PC14 -13207.677185  14709.002721 -19693.451779    453.748619
PC16 -19651.336370  29746.929521  22456.768519     87.051011
PC19   8535.873295 -22973.540719  13359.513703    894.521900
PC20  15346.425719  -5925.935901  22554.791006   -827.975426
PC21 -13330.430691 -15754.238182 -18755.811438   -940.406448
PC22  -3466.910373 -27387.586522  -3988.362366   -958.269751
PC23   8790.811628  19522.338057  17890.061462   -955.992693
PC24 -24387.835284  -2471.683131  13348.752414   -944.191428
PC25  -9983.554704  13035.218699  22555.564034   -776.366110
PC26 -23958.861460 -14187.104232  -2165.840837    776.187183
PC27  17594.617221   6260.613392 -20760.240314    680.702307
PC28   -269.769584  17567.269713 -21677.287218     35.160759
PC29  17623.872872 -19351.810024   9683.075584    517.977681
PC30  24996.662194  -9187.773859  -8387.564706    493.761223
PC32  13466.079839  15706.106725  18749.141914   -968.118375
PC33  -8433.374493  23002.077360 -13366.042307   -958.900313
PC34 -25002.557548   9831.634556   7485.238018   -464.338964
PC35    468.444171 -17953.410924  21362.893851    149.348872
PC36  10738.532541 -12504.193030 -22501.049867   -912.449516
PC37  23105.024913  15289.659000   3224.583641   -957.414075
PC38 -11135.699797  20522.309128 -35064.631178    212.897040
PC39 -24396.930988  30301.065022  16048.043189     34.794641
PC40 -10761.012063  37371.442257  16451.524201    246.193310
PC41   3345.222139  27469.762530   3638.862215   -941.167742
PC42 -15505.356645   4874.778185 -22639.278622   -932.401465
PC43 -18124.831510  19157.559465  -9087.411740   -940.459810
PC44 -17667.585422  -5930.959214  20750.365937    571.655793
PC45  -9115.181986 -19465.645796 -17817.433046    686.027903
PC46  23784.156046   1326.401012 -14506.372639   -179.751921
PE01   4803.291633 -19794.213699 -21486.730900   -583.111608
PE02  -4692.028941  19874.661819  21411.937912    281.621897
PE03 -13597.220326  26297.678717    183.478598   -529.937827
PE04   -904.642538 -24192.106710 -17028.891898   -969.182248
PE05 -20383.517095  12974.784674 -17095.014336   -207.079895
PE07  15218.364252   7714.213559  24192.955916   -641.135841
PE09 -15246.377171  -7334.038920 -24286.079840   5353.051051
PE10 -18100.647271 -12047.090781  20082.843989   -496.532048
PE11 -25997.266900  -6817.022723  12378.397679   4403.661160
PE12  -7655.341142 -15349.124969  24125.106086   4749.011034
PE13  25651.029375   7085.480550 -12964.319231    426.710379
PE14 -14865.729537  -5739.739835  18352.030821  -1753.123417
PE15   7559.756131  15272.141606 -24193.486129    762.047993
PE18  14217.625990  14666.050110 -24517.466649  -1767.915442
PE21  17426.353979  -2678.869667 -23779.890166   -718.388969
PE24 -20495.463060 -18065.845757  11412.843855  -1402.049214
PE25 -17559.002151   2383.073243  23712.729793   -564.341603
PE26  28240.763848  -5765.434725   6754.710527   -829.824577
PE27  20777.133882  16943.908002 -12527.371933   -237.062393
PE30  10993.152477  26562.799725   6989.217126   -291.028199
PE31 -11882.852823 -26444.802039  -6001.787579   -492.491360
PE33  14927.359614 -14423.701822  21116.917558   -459.235226
PE34 -14680.706389  14507.110904 -21218.570555   -502.938174
PE36 -28550.922020   5197.311322  -5789.554370   -335.266261
PG01  15149.841593  13358.335572 -17710.842464    426.304105
PG02   8127.462424 -14635.100795  21312.582306   -651.224966
PG03  13125.747146  22879.613217   3478.782147   -130.934622
PG04   6443.300811  15358.312085  20675.852545   -188.298608
PG05  -3230.056286 -23691.220420  11240.827355    -72.161231
PG06  22647.864477  -6169.897173  12571.560167    208.132095
PG07  25719.080690   6096.198915   4966.617702    311.735324
PG08  -2238.438869  21710.891227 -14913.048543    -56.993382
PG09  15175.186993   4473.108214  21267.915040   -353.254175
PG10 -15552.551720   1139.743027 -21397.675478   -326.267359
PG11   9961.473963 -13173.689581  20796.999123    -82.341065
PG12  -9715.711398 -24783.942734    548.898035   -174.153093
PG13  11148.999234 -21946.547904  -9913.505508    265.118446
PG14  16121.800712   -233.578119 -21122.073975    -86.292183
PG15  -1264.424932 -21804.876249 -15299.206345    -82.239573
PG16  -2403.861746  22011.631595  14043.422574   -472.075662
PG17  20040.556069 -10207.422809 -13735.160324    577.831105
PG18 -25601.806939  -5855.930143   4310.191460    235.706017
PG19  20325.640549 -15232.021220  -7692.454202    121.670773
PG20   3539.185808 -18913.000653  18411.362607    516.610826
PG21   5400.628673  14700.567792 -20866.706454    158.370373
PG22 -18812.594981  18085.320096  -3974.237036    216.705853
PG23 -17940.386693 -10462.507102 -16622.351855     -0.568604
PG24 -11341.894203 -14591.012691 -19507.886578    273.361282
PG25 -16789.346277 -17235.757106  11270.074501    288.456482
PG26 -10405.967720  12794.213360  20683.246453    184.977196
PG27 -11492.382692  23047.663812  -5762.379912    127.725566
PG28  12164.147038  -9308.245719 -21207.012942    395.965921
PG29 -12755.089016  -7602.726072  21979.398162   -482.769362
PG30  26355.328764   -133.316088  -4153.063318   -514.631397
PG31 -21452.525234   7473.160854  14011.358691   -165.686638
PG32 -19345.577110  14217.249859 -11023.027215    -71.446027
PJ01 -23921.346282  30368.493188 -12253.420740    236.602503
PJ02 -25871.806054  21876.513372  30070.156558     -1.483588
PJ03 -35397.990285  21087.758526  -4421.607834     -0.624776
PR01   6614.907273 -23634.207086   6936.065318      7.090497
PR02  -2348.085985 -22018.565025 -12676.684202    510.287036
PR03  -9676.291881  -7016.348771 -22496.155642     51.848761
PR04 -11244.176679  11686.094872 -19655.990376    128.635690
PR05  -6799.668026  23847.612947  -5909.853122     88.086372
PR07   9916.860869   6136.272727  22720.555203     31.857807
PR08  11339.458889 -11803.796339  19631.314737    -63.679594
PR09  14639.655634  18077.029027  10560.667456     40.591607
PR11  15936.483376    538.489029 -19906.989703     45.185701
PR12    737.769693 -12896.709756 -21980.879304     17.231433
PR13 -13832.454952 -17995.211279 -11668.991475    -18.553984
PR14 -21086.008872 -12637.249198   6794.227042     74.588136
PR15 -15520.647738    -37.000027  20256.686865     98.037159
PR17 -19844.453474   -318.900809  16054.877052    503.441115
PR18 -23979.328847   8594.925451    482.473335    107.957228
PR19 -16774.861449  12507.814263 -14582.867540   -178.964092
PR20   3391.463473   9756.963100 -23311.512200    -65.329917
PR21  20629.169809   -463.177051 -14979.439486   -279.698041
PR22  23968.215742  -8876.246741    465.831818   -166.037535
PR24  -4468.975811  -9879.691022  23108.545926     81.147768
EOF
